{
  "type": "FeatureCollection",
  "features": [
    {
      "type": "Feature",
      "properties": {
        "norad_id": 30547,
        "name": "FENGYUN 1C DEB",
        "group": "fengyun-1c-debris",
        "lat": -1.8824355142777802,
        "lon": -162.28750503005062,
        "alt_km": 834.1500824191371,
        "timestamp": "2025-12-20T03:42:47.670289+00:00",
        "meta_object_name": "FENGYUN 1C DEB",
        "meta_object_id": "1999-025AKM",
        "meta_epoch": "2025-12-19T19:26:35.771136",
        "meta_mean_motion": 14.3776181,
        "meta_eccentricity": 0.0095432,
        "meta_inclination": 98.9018,
        "meta_ra_of_asc_node": 197.0606,
        "meta_arg_of_pericenter": 196.4566,
        "meta_mean_anomaly": 178.9085,
        "meta_ephemeris_type": 0,
        "meta_classification_type": "U",
        "meta_norad_cat_id": 30547,
        "meta_element_set_no": 999,
        "meta_rev_at_epoch": 98824,
        "meta_bstar": 0.00018624,
        "meta_mean_motion_dot": 5.41e-06,
        "meta_mean_motion_ddot": 0,
        "tle_line1": "1 30547U 99025AKM 25353.81013624  .00000541  00000+0  18624-3 0  9990",
        "tle_line2": "2 30547  98.9018 197.0606 0095432 196.4566 178.9085 14.37761810988242"
      },
      "geometry": {
        "type": "Point",
        "coordinates": [
          -162.28750503005062,
          -1.8824355142777802
        ]
      }
    },
    {
      "type": "Feature",
      "properties": {
        "norad_id": 30548,
        "name": "FENGYUN 1C DEB",
        "group": "fengyun-1c-debris",
        "lat": -34.61767736413201,
        "lon": -100.82931386698712,
        "alt_km": 759.908229717952,
        "timestamp": "2025-12-20T03:42:47.670299+00:00",
        "meta_object_name": "FENGYUN 1C DEB",
        "meta_object_id": "1999-025AKN",
        "meta_epoch": "2025-12-19T11:53:03.591744",
        "meta_mean_motion": 14.26940048,
        "meta_eccentricity": 0.0068156,
        "meta_inclination": 99.6826,
        "meta_ra_of_asc_node": 251.6731,
        "meta_arg_of_pericenter": 316.757,
        "meta_mean_anomaly": 221.8405,
        "meta_ephemeris_type": 0,
        "meta_classification_type": "U",
        "meta_norad_cat_id": 30548,
        "meta_element_set_no": 999,
        "meta_rev_at_epoch": 14191,
        "meta_bstar": 0.0013661,
        "meta_mean_motion_dot": 3.351e-05,
        "meta_mean_motion_ddot": 0,
        "tle_line1": "1 30548U 99025AKN 25353.49518046  .00003351  00000+0  13661-2 0  9990",
        "tle_line2": "2 30548  99.6826 251.6731 0068156 316.7570 221.8405 14.26940048141918"
      },
      "geometry": {
        "type": "Point",
        "coordinates": [
          -100.82931386698712,
          -34.61767736413201
        ]
      }
    },
    {
      "type": "Feature",
      "properties": {
        "norad_id": 30549,
        "name": "FENGYUN 1C DEB",
        "group": "fengyun-1c-debris",
        "lat": 59.32613433837668,
        "lon": -51.3877009299009,
        "alt_km": 982.7471500340907,
        "timestamp": "2025-12-20T03:42:47.670310+00:00",
        "meta_object_name": "FENGYUN 1C DEB",
        "meta_object_id": "1999-025AKP",
        "meta_epoch": "2025-12-19T13:22:55.170336",
        "meta_mean_motion": 13.98762349,
        "meta_eccentricity": 0.0288452,
        "meta_inclination": 98.4777,
        "meta_ra_of_asc_node": 113.4956,
        "meta_arg_of_pericenter": 238.2172,
        "meta_mean_anomaly": 119.0601,
        "meta_ephemeris_type": 0,
        "meta_classification_type": "U",
        "meta_norad_cat_id": 30549,
        "meta_element_set_no": 999,
        "meta_rev_at_epoch": 95389,
        "meta_bstar": 0.0017503,
        "meta_mean_motion_dot": 3.557e-05,
        "meta_mean_motion_ddot": 0,
        "tle_line1": "1 30549U 99025AKP 25353.55758299  .00003557  00000+0  17503-2 0  9991",
        "tle_line2": "2 30549  98.4777 113.4956 0288452 238.2172 119.0601 13.98762349953892"
      },
      "geometry": {
        "type": "Point",
        "coordinates": [
          -51.3877009299009,
          59.32613433837668
        ]
      }
    },
    {
      "type": "Feature",
      "properties": {
        "norad_id": 30550,
        "name": "FENGYUN 1C DEB",
        "group": "fengyun-1c-debris",
        "lat": 21.65457376966058,
        "lon": -114.22473307088734,
        "alt_km": 908.8405380595887,
        "timestamp": "2025-12-20T03:42:47.670320+00:00",
        "meta_object_name": "FENGYUN 1C DEB",
        "meta_object_id": "1999-025AKQ",
        "meta_epoch": "2025-12-18T04:24:58.972896",
        "meta_mean_motion": 14.02439158,
        "meta_eccentricity": 0.01320693,
        "meta_inclination": 99.0533,
        "meta_ra_of_asc_node": 247.4464,
        "meta_arg_of_pericenter": 282.3946,
        "meta_mean_anomaly": 233.9531,
        "meta_ephemeris_type": 0,
        "meta_classification_type": "U",
        "meta_norad_cat_id": 30550,
        "meta_element_set_no": 999,
        "meta_rev_at_epoch": 95471,
        "meta_bstar": 0.0020497292,
        "meta_mean_motion_dot": 3.357e-05,
        "meta_mean_motion_ddot": 0,
        "tle_line1": "1 30550U 99025AKQ 25352.18401589  .00003357  00000+0  20497-2 0  9992",
        "tle_line2": "2 30550  99.0533 247.4464 0132069 282.3946 233.9531 14.02439158954719"
      },
      "geometry": {
        "type": "Point",
        "coordinates": [
          -114.22473307088734,
          21.65457376966058
        ]
      }
    },
    {
      "type": "Feature",
      "properties": {
        "norad_id": 30552,
        "name": "FENGYUN 1C DEB",
        "group": "fengyun-1c-debris",
        "lat": -12.342000439216608,
        "lon": 128.1903267591665,
        "alt_km": 718.7028187189517,
        "timestamp": "2025-12-20T03:42:47.670330+00:00",
        "meta_object_name": "FENGYUN 1C DEB",
        "meta_object_id": "1999-025AKS",
        "meta_epoch": "2025-12-19T07:57:51.528096",
        "meta_mean_motion": 14.54920985,
        "meta_eccentricity": 0.0015207,
        "meta_inclination": 98.8344,
        "meta_ra_of_asc_node": 125.3711,
        "meta_arg_of_pericenter": 234.1233,
        "meta_mean_anomaly": 125.8551,
        "meta_ephemeris_type": 0,
        "meta_classification_type": "U",
        "meta_norad_cat_id": 30552,
        "meta_element_set_no": 999,
        "meta_rev_at_epoch": 97748,
        "meta_bstar": 0.0020079,
        "meta_mean_motion_dot": 8.604e-05,
        "meta_mean_motion_ddot": 0,
        "tle_line1": "1 30552U 99025AKS 25353.33184639  .00008604  00000+0  20079-2 0  9992",
        "tle_line2": "2 30552  98.8344 125.3711 0015207 234.1233 125.8551 14.54920985977485"
      },
      "geometry": {
        "type": "Point",
        "coordinates": [
          128.1903267591665,
          -12.342000439216608
        ]
      }
    },
    {
      "type": "Feature",
      "properties": {
        "norad_id": 30553,
        "name": "FENGYUN 1C DEB",
        "group": "fengyun-1c-debris",
        "lat": 27.015806461631072,
        "lon": -85.34254033268778,
        "alt_km": 639.0327546181588,
        "timestamp": "2025-12-20T03:42:47.670340+00:00",
        "meta_object_name": "FENGYUN 1C DEB",
        "meta_object_id": "1999-025AKT",
        "meta_epoch": "2025-12-19T05:49:25.428288",
        "meta_mean_motion": 14.72519997,
        "meta_eccentricity": 0.0019834,
        "meta_inclination": 99.1308,
        "meta_ra_of_asc_node": 88.93,
        "meta_arg_of_pericenter": 132.4208,
        "meta_mean_anomaly": 227.8678,
        "meta_ephemeris_type": 0,
        "meta_classification_type": "U",
        "meta_norad_cat_id": 30553,
        "meta_element_set_no": 999,
        "meta_rev_at_epoch": 98569,
        "meta_bstar": 0.0021519,
        "meta_mean_motion_dot": 0.00013675,
        "meta_mean_motion_ddot": 0,
        "tle_line1": "1 30553U 99025AKT 25353.24265542  .00013675  00000+0  21519-2 0  9990",
        "tle_line2": "2 30553  99.1308  88.9300 0019834 132.4208 227.8678 14.72519997985692"
      },
      "geometry": {
        "type": "Point",
        "coordinates": [
          -85.34254033268778,
          27.015806461631072
        ]
      }
    },
    {
      "type": "Feature",
      "properties": {
        "norad_id": 30555,
        "name": "FENGYUN 1C DEB",
        "group": "fengyun-1c-debris",
        "lat": 3.778679769153745,
        "lon": 47.03116428026626,
        "alt_km": 837.3347684328983,
        "timestamp": "2025-12-20T03:42:47.670350+00:00",
        "meta_object_name": "FENGYUN 1C DEB",
        "meta_object_id": "1999-025AKV",
        "meta_epoch": "2025-12-19T02:29:05.774784",
        "meta_mean_motion": 14.208405,
        "meta_eccentricity": 0.00429217,
        "meta_inclination": 98.7572,
        "meta_ra_of_asc_node": 46.573,
        "meta_arg_of_pericenter": 253.0263,
        "meta_mean_anomaly": 136.6727,
        "meta_ephemeris_type": 0,
        "meta_classification_type": "U",
        "meta_norad_cat_id": 30555,
        "meta_element_set_no": 999,
        "meta_rev_at_epoch": 97026,
        "meta_bstar": 0.0010615192,
        "meta_mean_motion_dot": 2.271e-05,
        "meta_mean_motion_ddot": 0,
        "tle_line1": "1 30555U 99025AKV 25353.10353906  .00002271  00000+0  10615-2 0  9994",
        "tle_line2": "2 30555  98.7572  46.5730 0042921 253.0263 136.6727 14.20840500970262"
      },
      "geometry": {
        "type": "Point",
        "coordinates": [
          47.03116428026626,
          3.778679769153745
        ]
      }
    }
  ]
}